NORAD_CAT_ID,OBJECT_NAME,OBJECT_TYPE,EPOCH,MEAN_MOTION,ECCENTRICITY,INCLINATION,RA_OF_ASC_NODE,ARG_OF_PERICENTER,MEAN_ANOMALY,BSTAR,MEAN_MOTION_DOT,MEAN_MOTION_DDOT,TLE_LINE0,TLE_LINE1,TLE_LINE2,SEMIMAJOR_AXIS,PERIOD,APOGEE,PERIGEE,DECAYED
53633.0,STARLINK-4593,PAYLOAD,2023-04-05 02:27:51,15.08839596,0.0001262,53.2177,345.7083,96.2358,263.8778,-5.4134e-05,-1.149e-05,0.0,0 STARLINK-4593,1 53633U 22104AX  23095.10267704 -.00001149  00000-0 -54134-4 0  9993,2 53633  53.2177 345.7083 0001262  96.2358 263.8778 15.08839596 33732,6917.882,95.438,540.62,538.874,0.0
53633.0,STARLINK-4593,PAYLOAD,2023-04-05 19:57:05,15.08846248,0.0001161,53.2173,342.4375,104.9548,255.1573,-1.4134e-05,-5.13e-06,0.0,0 STARLINK-4593,1 53633U 22104AX  23095.83131118 -.00000513  00000-0 -14134-4 0  9992,2 53633  53.2173 342.4375 0001161 104.9548 255.1573 15.08846248 34530,6917.861,95.437,540.529,538.923,0.0
53633.0,STARLINK-4593,PAYLOAD,2023-04-05 21:32:28,15.08849715,0.000119,53.2174,342.1403,105.43,254.6824,-2.701e-05,-7.18e-06,0.0,0 STARLINK-4593,1 53633U 22104AX  23095.89754949 -.00000718  00000-0 -27010-4 0  9995,2 53633  53.2174 342.1403 0001190 105.4300 254.6824 15.08849715 33853,6917.851,95.437,540.539,538.892,0.0
53633.0,STARLINK-4593,PAYLOAD,2023-04-06 02:18:36,15.08863482,0.0001023,53.2172,341.2496,91.8997,268.2112,8.6196e-05,1.085e-05,0.0,0 STARLINK-4593,1 53633U 22104AX  23096.09625479  .00001085  00000-0  86196-4 0  9999,2 53633  53.2172 341.2496 0001023  91.8997 268.2112 15.08863482 33889,6917.809,95.436,540.381,538.966,0.0
53633.0,STARLINK-4593,PAYLOAD,2023-04-06 16:37:07,15.08830704,6.09e-05,53.2166,338.5725,82.9697,277.1364,-5.9637e-05,-1.236e-05,0.0,0 STARLINK-4593,1 53633U 22104AX  23096.69244213 -.00001236  00000-0 -59637-4 0  9998,2 53633  53.2166 338.5725 0000609  82.9697 277.1364 15.08830704 33972,6917.909,95.438,540.195,539.353,0.0
53633.0,STARLINK-4593,PAYLOAD,2023-04-06 22:58:39,15.08837961,0.0001228,53.2163,337.3843,101.404,258.709,-1.2583e-05,-4.88e-06,0.0,0 STARLINK-4593,1 53633U 22104AX  23096.95739685 -.00000488  00000-0 -12583-4 0  9996,2 53633  53.2163 337.3843 0001228 101.4040 258.7090 15.08837961 34709,6917.887,95.438,540.601,538.902,0.0
53633.0,STARLINK-4593,PAYLOAD,2023-04-07 00:34:02,15.08838249,0.0001034,53.2173,337.0872,92.432,267.6791,-2.0859e-05,-6.2e-06,0.0,0 STARLINK-4593,1 53633U 22104AX  23097.02363738 -.00000620  00000-0 -20859-4 0  9990,2 53633  53.2173 337.0872 0001034  92.4320 267.6791 15.08838249 34026,6917.886,95.438,540.466,539.035,0.0
53633.0,STARLINK-4593,PAYLOAD,2023-04-08 00:24:48,15.0885015,9.65e-05,53.2174,332.6266,91.1589,268.9513,-6.8612e-05,-1.38e-05,0.0,0 STARLINK-4593,1 53633U 22104AX  23098.01723280 -.00001380  00000-0 -68612-4 0  9995,2 53633  53.2174 332.6266 0000965  91.1589 268.9513 15.08850150 34177,6917.849,95.437,540.382,539.047,0.0
53633.0,STARLINK-4593,PAYLOAD,2023-04-08 17:54:04,15.08829737,0.0001043,53.2182,329.356,99.7818,260.3292,-1.4319e-05,-5.16e-06,0.0,0 STARLINK-4593,1 53633U 22104AX  23098.74588600 -.00000516  00000-0 -14319-4 0  9995,2 53633  53.2182 329.3560 0001043  99.7818 260.3292 15.08829737 34282,6917.912,95.438,540.498,539.055,0.0
53633.0,STARLINK-4593,PAYLOAD,2023-04-09 00:15:36,15.0883696,0.0001107,53.2181,328.1672,102.8077,257.3039,4.9754e-05,5.04e-06,0.0,0 STARLINK-4593,1 53633U 22104AX  23099.01084059  .00000504  00000-0  49754-4 0  9991,2 53633  53.2181 328.1672 0001107 102.8077 257.3039 15.08836960 34322,6917.89,95.438,540.52,538.989,0.0
53633.0,STARLINK-4593,PAYLOAD,2023-04-09 17:44:51,15.08839879,0.0001091,53.2174,324.897,96.2037,263.908,6.2055e-06,-1.89e-06,0.0,0 STARLINK-4593,1 53633U 22104AX  23099.73948244 -.00000189  00000-0  62055-5 0  9995,2 53633  53.2174 324.8970 0001091  96.2037 263.9080 15.08839879 35122,6917.881,95.438,540.5,538.991,0.0
53633.0,STARLINK-4593,PAYLOAD,2023-04-10 00:06:23,15.08841927,0.0001124,53.2171,323.7064,90.2565,269.8556,4.0135e-05,3.51e-06,0.0,0 STARLINK-4593,1 53633U 22104AX  23100.00444007  .00000351  00000-0  40135-4 0  9990,2 53633  53.2171 323.7064 0001124  90.2565 269.8556 15.08841927 35162,6917.874,95.437,540.517,538.962,0.0
53633.0,STARLINK-4593,PAYLOAD,2023-04-10 20:46:24,15.0883826,0.0001212,53.2169,319.8405,82.1752,277.9378,9.1654e-05,1.171e-05,0.0,0 STARLINK-4593,1 53633U 22104AX  23100.86556083  .00001171  00000-0  91654-4 0  9995,2 53633  53.2169 319.8405 0001212  82.1752 277.9378 15.08838260 34606,6917.886,95.438,540.589,538.912,0.0
53633.0,STARLINK-4593,PAYLOAD,2023-04-10 23:57:10,15.08842482,0.0001143,53.2163,319.2451,77.0311,283.0808,4.3219e-05,4e-06,0.0,0 STARLINK-4593,1 53633U 22104AX  23100.99803968  .00000400  00000-0  43219-4 0  9994,2 53633  53.2163 319.2451 0001143  77.0311 283.0808 15.08842482 35318,6917.873,95.437,540.529,538.947,0.0
53633.0,STARLINK-4593,PAYLOAD,2023-04-11 20:37:11,15.08835607,0.0001102,53.2171,315.3779,88.6164,271.4954,1.1966e-05,-9.7e-07,0.0,0 STARLINK-4593,1 53633U 22104AX  23101.85916472 -.00000097  00000-0  11966-4 0  9992,2 53633  53.2171 315.3779 0001102  88.6164 271.4954 15.08835607 35444,6917.894,95.438,540.521,538.996,0.0
53633.0,STARLINK-4593,PAYLOAD,2023-04-11 23:47:58,15.08797215,0.0001383,53.2167,314.7836,82.7482,277.3667,0.00052698,8.099e-05,0.0,0 STARLINK-4593,1 53633U 22104AX  23101.99165227  .00008099  00000-0  52698-3 0  9996,2 53633  53.2167 314.7836 0001383  82.7482 277.3667 15.08797215 34778,6918.011,95.44,540.833,538.919,0.0
53633.0,STARLINK-4593,PAYLOAD,2023-04-12 14:06:26,15.08839626,0.0001226,53.2154,312.1077,73.0696,287.043,-7.1267e-06,-4.01e-06,0.0,0 STARLINK-4593,1 53633U 22104AX  23102.58780350 -.00000401  00000-0 -71267-5 0  9998,2 53633  53.2154 312.1077 0001226  73.0696 287.0430 15.08839626 35555,6917.882,95.438,540.595,538.898,0.0
53633.0,STARLINK-4593,PAYLOAD,2023-04-12 23:38:44,15.08846955,0.0001264,53.2157,310.3251,80.6183,279.4952,1.6032e-05,-3.3e-07,0.0,0 STARLINK-4593,1 53633U 22104AX  23102.98523657 -.00000033  00000-0  16032-4 0  9995,2 53633  53.2157 310.3251 0001264  80.6183 279.4952 15.08846955 35613,6917.859,95.437,540.599,538.85,0.0
53633.0,STARLINK-4593,PAYLOAD,2023-04-14 12:12:37,15.08837126,0.0001044,53.2167,303.4831,94.2717,265.8395,-5.7252e-05,-1.199e-05,0.0,0 STARLINK-4593,1 53633U 22104AX  23104.50876657 -.00001199  00000-0 -57252-4 0  9990,2 53633  53.2167 303.4831 0001044  94.2717 265.8395 15.08837126 35846,6917.889,95.438,540.476,539.032,0.0
53633.0,STARLINK-4593,PAYLOAD,2023-04-15 05:41:52,15.0882607,0.0002003,53.2161,300.213,91.8222,268.3,-7.6238e-05,-1.501e-05,0.0,0 STARLINK-4593,1 53633U 22104AX  23105.23741633 -.00001501  00000-0 -76238-4 0  9998,2 53633  53.2161 300.2130 0002003  91.8222 268.3000 15.08826070 35260,6917.923,95.438,541.174,538.402,0.0
53633.0,STARLINK-4593,PAYLOAD,2023-04-15 13:38:48,15.08831497,0.0001014,53.2157,298.7257,89.4729,270.6379,-7.6993e-05,-1.513e-05,0.0,0 STARLINK-4593,1 53633U 22104AX  23105.56861246 -.00001513  00000-0 -76993-4 0  9998,2 53633  53.2157 298.7257 0001014  89.4729 270.6379 15.08831497 36009,6917.906,95.438,540.473,539.07,0.0
53633.0,STARLINK-4593,PAYLOAD,2023-04-15 21:35:43,15.08838998,0.0001017,53.2157,297.2392,93.0598,267.0511,-9.2798e-06,-4.35e-06,0.0,0 STARLINK-4593,1 53633U 22104AX  23105.89980639 -.00000435  00000-0 -92798-5 0  9996,2 53633  53.2157 297.2392 0001017  93.0598 267.0511 15.08838998 36057,6917.883,95.438,540.452,539.045,0.0
53633.0,STARLINK-4593,PAYLOAD,2023-04-16 13:29:34,15.08838826,0.0001444,53.2152,294.2633,96.2449,263.8708,-1.0831e-05,-4.6e-06,0.0,0 STARLINK-4593,1 53633U 22104AX  23106.56220910 -.00000460  00000-0 -10831-4 0  9995,2 53633  53.2152 294.2633 0001444  96.2449 263.8708 15.08838826 36154,6917.884,95.438,540.748,538.75,0.0
53633.0,STARLINK-4593,PAYLOAD,2023-04-16 21:26:29,15.08847808,8e-05,53.216,292.7767,82.3867,277.7216,5.9639e-05,6.62e-06,0.0,0 STARLINK-4593,1 53633U 22104AX  23106.89340040  .00000662  00000-0  59639-4 0  9999,2 53633  53.2160 292.7767 0000800  82.3867 277.7216 15.08847808 36203,6917.857,95.437,540.275,539.168,0.0
53633.0,STARLINK-4593,PAYLOAD,2023-04-17 19:41:54,15.08841966,0.0001067,53.2171,288.615,91.5382,268.5732,5.688e-05,6.18e-06,0.0,0 STARLINK-4593,1 53633U 22104AX  23107.82076688  .00000618  00000-0  56880-4 0  9993,2 53633  53.2171 288.6150 0001067  91.5382 268.5732 15.08841966 35653,6917.874,95.437,540.478,539.001,0.0
53633.0,STARLINK-4593,PAYLOAD,2023-04-17 21:17:17,15.0884417,0.0001105,53.2172,288.316,98.7239,261.3878,9.5932e-05,1.239e-05,0.0,0 STARLINK-4593,1 53633U 22104AX  23107.88700378  .00001239  00000-0  95932-4 0  9990,2 53633  53.2172 288.3160 0001105  98.7239 261.3878 15.08844170 36355,6917.868,95.437,540.497,538.968,0.0
53633.0,STARLINK-4593,PAYLOAD,2023-04-18 05:14:13,15.08831563,0.0001068,53.2156,286.8292,86.6135,273.4979,-2.4479e-05,-6.77e-06,0.0,0 STARLINK-4593,1 53633U 22104AX  23108.21821512 -.00000677  00000-0 -24479-4 0  9997,2 53633  53.2156 286.8292 0001068  86.6135 273.4979 15.08831563 35712,6917.906,95.438,540.51,539.032,0.0
53633.0,STARLINK-4593,PAYLOAD,2023-04-18 11:35:46,15.08831509,0.0001044,53.2166,285.6403,86.9842,273.127,2.7361e-05,1.48e-06,0.0,0 STARLINK-4593,1 53633U 22104AX  23108.48317473  .00000148  00000-0  27361-4 0  9996,2 53633  53.2166 285.6403 0001044  86.9842 273.1270 15.08831509 36448,6917.906,95.438,540.494,539.049,0.0
53633.0,STARLINK-4593,PAYLOAD,2023-04-18 17:57:18,15.08843037,0.0001104,53.2165,284.4513,83.7759,276.3359,9.6981e-06,-1.33e-06,0.0,0 STARLINK-4593,1 53633U 22104AX  23108.74812877 -.00000133  00000-0  96981-5 0  9993,2 53633  53.2165 284.4513 0001104  83.7759 276.3359 15.08843037 36481,6917.871,95.437,540.5,538.972,0.0
53633.0,STARLINK-4593,PAYLOAD,2023-04-19 11:26:32,15.08842731,8.63e-05,53.2161,281.1822,76.8264,283.2824,-3.8311e-05,-8.97e-06,0.0,0 STARLINK-4593,1 53633U 22104AX  23109.47677041 -.00000897  00000-0 -38311-4 0  9996,2 53633  53.2161 281.1822 0000863  76.8264 283.2824 15.08842731 36595,6917.872,95.437,540.334,539.14,0.0
